CCSDS_OMM_VERS = 2.0
CREATION_DATE  = 
ORIGINATOR     = 

OBJECT_NAME    = ERS-1
OBJECT_ID      = 1991-050A
CENTER_NAME    = EARTH
REF_FRAME      = TEME
TIME_SYSTEM    = UTC
MEAN_ELEMENT_THEORY = SGP/SGP4

EPOCH          = 2026-03-08T12:22:31.680480
MEAN_MOTION    = 14.39448449
ECCENTRICITY   = .00315527
INCLINATION    = 98.7884
RA_OF_ASC_NODE = 85.7208
ARG_OF_PERICENTER = 203.9802
MEAN_ANOMALY   = 155.9917

EPHEMERIS_TYPE = 0
CLASSIFICATION_TYPE = U
NORAD_CAT_ID   = 21574
ELEMENT_SET_NO = 999
REV_AT_EPOCH   = 81556
BSTAR          = .15465057E-3
MEAN_MOTION_DOT = .438E-5
MEAN_MOTION_DDOT = 0

CCSDS_OMM_VERS = 2.0
CREATION_DATE  = 
ORIGINATOR     = 

OBJECT_NAME    = ARIANE 40 R/B
OBJECT_ID      = 1991-050F
CENTER_NAME    = EARTH
REF_FRAME      = TEME
TIME_SYSTEM    = UTC
MEAN_ELEMENT_THEORY = SGP/SGP4

EPOCH          = 2026-03-08T13:39:55.287360
MEAN_MOTION    = 14.42892840
ECCENTRICITY   = .0004354
INCLINATION    = 98.2014
RA_OF_ASC_NODE = 119.8479
ARG_OF_PERICENTER = 83.7464
MEAN_ANOMALY   = 276.4223

EPHEMERIS_TYPE = 0
CLASSIFICATION_TYPE = U
NORAD_CAT_ID   = 21610
ELEMENT_SET_NO = 999
REV_AT_EPOCH   = 81883
BSTAR          = .13563818E-3
MEAN_MOTION_DOT = .411E-5
MEAN_MOTION_DDOT = 0

CCSDS_OMM_VERS = 2.0
CREATION_DATE  = 
ORIGINATOR     = 

OBJECT_NAME    = INTERCOSMOS 25
OBJECT_ID      = 1991-086A
CENTER_NAME    = EARTH
REF_FRAME      = TEME
TIME_SYSTEM    = UTC
MEAN_ELEMENT_THEORY = SGP/SGP4

EPOCH          = 2026-03-08T10:03:58.585248
MEAN_MOTION    = 12.11995335
ECCENTRICITY   = .14869878
INCLINATION    = 82.6047
RA_OF_ASC_NODE = 310.7767
ARG_OF_PERICENTER = 119.6668
MEAN_ANOMALY   = 256.0747

EPHEMERIS_TYPE = 0
CLASSIFICATION_TYPE = U
NORAD_CAT_ID   = 21819
ELEMENT_SET_NO = 999
REV_AT_EPOCH   = 49653
BSTAR          = .33514029E-3
MEAN_MOTION_DOT = .1745E-4
MEAN_MOTION_DDOT = 0

CCSDS_OMM_VERS = 2.0
CREATION_DATE  = 
ORIGINATOR     = 

OBJECT_NAME    = SL-8 R/B
OBJECT_ID      = 1992-008B
CENTER_NAME    = EARTH
REF_FRAME      = TEME
TIME_SYSTEM    = UTC
MEAN_ELEMENT_THEORY = SGP/SGP4

EPOCH          = 2026-03-08T15:09:19.738080
MEAN_MOTION    = 13.75969836
ECCENTRICITY   = .00354803
INCLINATION    = 82.9224
RA_OF_ASC_NODE = 268.5657
ARG_OF_PERICENTER = 136.2159
MEAN_ANOMALY   = 287.0199

EPHEMERIS_TYPE = 0
CLASSIFICATION_TYPE = U
NORAD_CAT_ID   = 21876
ELEMENT_SET_NO = 999
REV_AT_EPOCH   = 70927
BSTAR          = .1468706E-5
MEAN_MOTION_DOT = .17E-6
MEAN_MOTION_DDOT = 0

CCSDS_OMM_VERS = 2.0
CREATION_DATE  = 
ORIGINATOR     = 

OBJECT_NAME    = SL-8 R/B
OBJECT_ID      = 1992-020B
CENTER_NAME    = EARTH
REF_FRAME      = TEME
TIME_SYSTEM    = UTC
MEAN_ELEMENT_THEORY = SGP/SGP4

EPOCH          = 2026-03-08T14:41:04.699680
MEAN_MOTION    = 13.75549393
ECCENTRICITY   = .00277065
INCLINATION    = 82.9338
RA_OF_ASC_NODE = 154.5617
ARG_OF_PERICENTER = 301.9575
MEAN_ANOMALY   = 172.2486

EPHEMERIS_TYPE = 0
CLASSIFICATION_TYPE = U
NORAD_CAT_ID   = 21938
ELEMENT_SET_NO = 999
REV_AT_EPOCH   = 70098
BSTAR          = .81184703E-4
MEAN_MOTION_DOT = .93E-6
MEAN_MOTION_DDOT = 0

CCSDS_OMM_VERS = 2.0
CREATION_DATE  = 
ORIGINATOR     = 

OBJECT_NAME    = USA 81
OBJECT_ID      = 1992-023A
CENTER_NAME    = EARTH
REF_FRAME      = TEME
TIME_SYSTEM    = UTC
MEAN_ELEMENT_THEORY = SGP/SGP4

EPOCH          = 2026-03-08T14:39:45.206496
MEAN_MOTION    = 14.32367697
ECCENTRICITY   = .00025033
INCLINATION    = 85.0087
RA_OF_ASC_NODE = 132.0635
ARG_OF_PERICENTER = 78.7085
MEAN_ANOMALY   = 281.4389

EPHEMERIS_TYPE = 0
CLASSIFICATION_TYPE = U
NORAD_CAT_ID   = 21949
ELEMENT_SET_NO = 999
REV_AT_EPOCH   = 9463
BSTAR          = .76640265E-4
MEAN_MOTION_DOT = .227E-5
MEAN_MOTION_DDOT = 0

CCSDS_OMM_VERS = 2.0
CREATION_DATE  = 
ORIGINATOR     = 

OBJECT_NAME    = COSMOS 2219
OBJECT_ID      = 1992-076A
CENTER_NAME    = EARTH
REF_FRAME      = TEME
TIME_SYSTEM    = UTC
MEAN_ELEMENT_THEORY = SGP/SGP4

EPOCH          = 2026-03-08T14:26:01.523328
MEAN_MOTION    = 14.14092167
ECCENTRICITY   = .00190658
INCLINATION    = 71.0632
RA_OF_ASC_NODE = 20.3420
ARG_OF_PERICENTER = 208.5278
MEAN_ANOMALY   = 151.4802

EPHEMERIS_TYPE = 0
CLASSIFICATION_TYPE = U
NORAD_CAT_ID   = 22219
ELEMENT_SET_NO = 999
REV_AT_EPOCH   = 71822
BSTAR          = .11411906E-3
MEAN_MOTION_DOT = .171E-5
MEAN_MOTION_DDOT = 0

CCSDS_OMM_VERS = 2.0
CREATION_DATE  = 
ORIGINATOR     = 

OBJECT_NAME    = SL-16 R/B
OBJECT_ID      = 1992-076B
CENTER_NAME    = EARTH
REF_FRAME      = TEME
TIME_SYSTEM    = UTC
MEAN_ELEMENT_THEORY = SGP/SGP4

EPOCH          = 2026-03-08T15:03:59.868864
MEAN_MOTION    = 14.16859973
ECCENTRICITY   = .00104715
INCLINATION    = 71.0007
RA_OF_ASC_NODE = 190.6101
ARG_OF_PERICENTER = 98.3561
MEAN_ANOMALY   = 272.8031

EPHEMERIS_TYPE = 0
CLASSIFICATION_TYPE = U
NORAD_CAT_ID   = 22220
ELEMENT_SET_NO = 999
REV_AT_EPOCH   = 72168
BSTAR          = -.47521873E-4
MEAN_MOTION_DOT = -.143E-5
MEAN_MOTION_DDOT = 0

CCSDS_OMM_VERS = 2.0
CREATION_DATE  = 
ORIGINATOR     = 

OBJECT_NAME    = COSMOS 2221
OBJECT_ID      = 1992-080A
CENTER_NAME    = EARTH
REF_FRAME      = TEME
TIME_SYSTEM    = UTC
MEAN_ELEMENT_THEORY = SGP/SGP4

EPOCH          = 2026-03-08T15:13:14.719296
MEAN_MOTION    = 14.96196210
ECCENTRICITY   = .00139477
INCLINATION    = 82.5009
RA_OF_ASC_NODE = 280.0923
ARG_OF_PERICENTER = 190.6659
MEAN_ANOMALY   = 169.4270

EPHEMERIS_TYPE = 0
CLASSIFICATION_TYPE = U
NORAD_CAT_ID   = 22236
ELEMENT_SET_NO = 999
REV_AT_EPOCH   = 78063
BSTAR          = .19839269E-3
MEAN_MOTION_DOT = .2265E-4
MEAN_MOTION_DDOT = 0

CCSDS_OMM_VERS = 2.0
CREATION_DATE  = 
ORIGINATOR     = 

OBJECT_NAME    = SL-16 R/B
OBJECT_ID      = 1992-093B
CENTER_NAME    = EARTH
REF_FRAME      = TEME
TIME_SYSTEM    = UTC
MEAN_ELEMENT_THEORY = SGP/SGP4

EPOCH          = 2026-03-08T06:07:48.786528
MEAN_MOTION    = 14.15448322
ECCENTRICITY   = .00063763
INCLINATION    = 71.0241
RA_OF_ASC_NODE = 7.2762
ARG_OF_PERICENTER = 295.1908
MEAN_ANOMALY   = 64.8553

EPHEMERIS_TYPE = 0
CLASSIFICATION_TYPE = U
NORAD_CAT_ID   = 22285
ELEMENT_SET_NO = 999
REV_AT_EPOCH   = 71295
BSTAR          = -.80217479E-4
MEAN_MOTION_DOT = -.204E-5
MEAN_MOTION_DDOT = 0

CCSDS_OMM_VERS = 2.0
CREATION_DATE  = 
ORIGINATOR     = 

OBJECT_NAME    = COSMOS 2228
OBJECT_ID      = 1992-094A
CENTER_NAME    = EARTH
REF_FRAME      = TEME
TIME_SYSTEM    = UTC
MEAN_ELEMENT_THEORY = SGP/SGP4

EPOCH          = 2026-03-08T14:01:34.513536
MEAN_MOTION    = 14.97184073
ECCENTRICITY   = .00168097
INCLINATION    = 82.5155
RA_OF_ASC_NODE = 238.3685
ARG_OF_PERICENTER = 308.7222
MEAN_ANOMALY   = 51.2497

EPHEMERIS_TYPE = 0
CLASSIFICATION_TYPE = U
NORAD_CAT_ID   = 22286
ELEMENT_SET_NO = 999
REV_AT_EPOCH   = 77589
BSTAR          = .26219676E-3
MEAN_MOTION_DOT = .3064E-4
MEAN_MOTION_DDOT = 0

CCSDS_OMM_VERS = 2.0
CREATION_DATE  = 
ORIGINATOR     = 

OBJECT_NAME    = SL-16 R/B
OBJECT_ID      = 1993-016B
CENTER_NAME    = EARTH
REF_FRAME      = TEME
TIME_SYSTEM    = UTC
MEAN_ELEMENT_THEORY = SGP/SGP4

EPOCH          = 2026-03-08T13:52:55.545024
MEAN_MOTION    = 14.15308411
ECCENTRICITY   = .00116926
INCLINATION    = 71.0069
RA_OF_ASC_NODE = 217.5144
ARG_OF_PERICENTER = 315.6837
MEAN_ANOMALY   = 44.3348

EPHEMERIS_TYPE = 0
CLASSIFICATION_TYPE = U
NORAD_CAT_ID   = 22566
ELEMENT_SET_NO = 999
REV_AT_EPOCH   = 70201
BSTAR          = .11903052E-3
MEAN_MOTION_DOT = .184E-5
MEAN_MOTION_DDOT = 0

